[{"OBJECT_NAME":"STARLINK-3866","OBJECT_ID":"2022-049BB","EPOCH":"2026-03-09T07:47:25.703520","MEAN_MOTION":15.08842237,"ECCENTRICITY":0.00014538,"INCLINATION":53.218,"RA_OF_ASC_NODE":40.7568,"ARG_OF_PERICENTER":88.7553,"MEAN_ANOMALY":271.3605,"EPHEMERIS_TYPE":0,"CLASSIFICATION_TYPE":"U","NORAD_CAT_ID":52500,"ELEMENT_SET_NO":999,"REV_AT_EPOCH":21247,"BSTAR":5.9018623e-5,"MEAN_MOTION_DOT":6.52e-6,"MEAN_MOTION_DDOT":0},{"OBJECT_NAME":"ICEYE-X66","OBJECT_ID":"2025-248J","EPOCH":"2026-03-09T21:44:57.261984","MEAN_MOTION":15.08170847,"ECCENTRICITY":0.00050662,"INCLINATION":45.4014,"RA_OF_ASC_NODE":296.227,"ARG_OF_PERICENTER":203.4375,"MEAN_ANOMALY":156.6276,"EPHEMERIS_TYPE":0,"CLASSIFICATION_TYPE":"U","NORAD_CAT_ID":66301,"ELEMENT_SET_NO":999,"REV_AT_EPOCH":2051,"BSTAR":0.00021374435,"MEAN_MOTION_DOT":3.108e-5,"MEAN_MOTION_DDOT":0}]
